IRIDIUM 159             
1 43578U 18061K   25303.10965836  .00000020  00000+0 -21607-7 0  9999
2 43578  86.3983 152.8942 0002198  89.3272 270.8175 14.34217741380407
IRIDIUM 180             
1 43922U 19002A   25303.80683718  .00000282  00000+0  93484-4 0  9999
2 43922  86.3929  89.4918 0002227  89.5138 270.6313 14.34216733356117
IRIDIUM 176             
1 43923U 19002B   25303.83594681  .00001589  00000+0  24815-3 0  9995
2 43923  86.6055  89.4565 0001955  75.9563 284.1871 14.72251939365508
IRIDIUM 168             
1 43924U 19002C   25303.66095920  .00001174  00000+0  41208-3 0  9994
2 43924  86.3936  89.6241 0002007  86.7558 273.3868 14.34218941356072
IRIDIUM 173             
1 43925U 19002D   25302.95058942  .00000330  00000+0  11065-3 0  9990
2 43925  86.3928  89.8192 0002156  87.3914 272.7528 14.34217821355957
IRIDIUM 169             
1 43926U 19002E   25303.23130513  .00000192  00000+0  56249-4 0  9998
2 43926  86.4189 121.3513 0002250  57.1335 303.0080 14.38605817357160
IRIDIUM 172             
1 43927U 19002F   25302.94424687  .00000434  00000+0  14776-3 0  9991
2 43927  86.3929  89.8292 0002291  92.2677 267.8781 14.34219015355966
IRIDIUM 175             
1 43928U 19002G   25303.69519483  .00001059  00000+0  16392-3 0  9994
2 43928  86.1532  34.3415 0001625 112.1019 248.0370 14.72250022365476
